IRIDIUM 106             
1 41917U 17003A   24177.68900507  .00000035  00000+0  54099-5 0  9998
2 41917  86.3970  30.0342 0002523  92.7511 267.3973 14.34216817389796
IRIDIUM 103             
1 41918U 17003B   24177.67632140  .00000011  00000+0 -32446-5 0  9990
2 41918  86.3967  29.9411 0001770  95.8255 264.3142 14.34217621389811
IRIDIUM 109             
1 41919U 17003C   24177.68266366  .00000095  00000+0  26913-4 0  9997
2 41919  86.3970  29.9859 0001878  81.9788 278.1620 14.34218218389781
IRIDIUM 102             
1 41920U 17003D   24177.65095197  .00000010  00000+0 -36023-5 0  9990
2 41920  86.3966  29.9381 0002078  81.2016 278.9415 14.34217526389868
IRIDIUM 105             
1 41921U 17003E   24177.90077941  .00000359  00000+0  12121-3 0  9992
2 41921  86.3978 358.2720 0002065  93.3964 266.7468 14.34227740391752
IRIDIUM 104             
1 41922U 17003F   24177.94272920  .00000326  00000+0  10921-3 0  9991
2 41922  86.3970  29.8479 0001744  82.3848 277.7546 14.34217488389898
IRIDIUM 114             
1 41923U 17003G   24177.94905389  .00000018  00000+0 -53772-6 0  9997
2 41923  86.3970  29.8312 0002389  90.5786 269.5684 14.34217805389876
IRIDIUM 108             
1 41924U 17003H   24177.90757365  .00000213  00000+0  68833-4 0  9991
2 41924  86.3973 358.1934 0002405  91.3101 268.8370 14.34218880391722
